start=new Date('2021-11-06T00:00:00.000Z').valueOf();
sats=[{"MEAN_ANOMALY":"285.6645","RCS_SIZE":"LARGE","FILE":"3204412","BSTAR":"-0.00007016400000","CLASSIFICATION_TYPE":"U","PERIAPSIS":"546.136","OBJECT_ID":"2020-001BH","TIME_SYSTEM":"UTC","SITE":"AFETR","COUNTRY_CODE":"US","OBJECT_NAME":"STARLINK-1092","CENTER_NAME":"EARTH","LAUNCH_DATE":"2020-01-07","GP_ID":"189043833","SEMIMAJOR_AXIS":"6925.357","TLE_LINE1":"1 44969U 20001BH  21309.85793765 -.00001326  00000-0 -70164-4 0  9996","APOAPSIS":"548.308","DECAY_DATE":null,"MEAN_ELEMENT_THEORY":"SGP4","INCLINATION":"53.0534","REV_AT_EPOCH":"10153","NORAD_CAT_ID":"44969","MEAN_MOTION":"15.06397264","RA_OF_ASC_NODE":"221.2054","PERIOD":"95.592","ARG_OF_PERICENTER":"74.4517","EPOCH":"2021-11-05T20:35:25.812960","ECCENTRICITY":"0.00015680","TLE_LINE2":"2 44969  53.0534 221.2054 0001568  74.4517 285.6645 15.06397264101537","OBJECT_TYPE":"PAYLOAD","ELEMENT_SET_NO":"999","MEAN_MOTION_DOT":"-0.00001326","EPHEMERIS_TYPE":"0","MEAN_MOTION_DDOT":"0.0000000000000","REF_FRAME":"TEME"},{"TIME_SYSTEM":"UTC","OBJECT_ID":"2020-001BJ","PERIAPSIS":"546.111","SITE":"AFETR","COUNTRY_CODE":"US","MEAN_ANOMALY":"288.0580","RCS_SIZE":"LARGE","FILE":"3204412","CLASSIFICATION_TYPE":"U","BSTAR":"0.00024841000000","SEMIMAJOR_AXIS":"6925.347","TLE_LINE1":"1 44970U 20001BJ  21309.76948306  .00003420  00000-0  24841-3 0  9996","APOAPSIS":"548.313","DECAY_DATE":null,"CENTER_NAME":"EARTH","OBJECT_NAME":"STARLINK-1093","GP_ID":"189044075","LAUNCH_DATE":"2020-01-07","ARG_OF_PERICENTER":"72.0582","PERIOD":"95.592","MEAN_MOTION":"15.06400500","RA_OF_ASC_NODE":"221.6114","MEAN_ELEMENT_THEORY":"SGP4","INCLINATION":"53.0544","NORAD_CAT_ID":"44970","REV_AT_EPOCH":"10151","ELEMENT_SET_NO":"999","MEAN_MOTION_DDOT":"0.0000000000000","REF_FRAME":"TEME","EPHEMERIS_TYPE":"0","MEAN_MOTION_DOT":"0.00003420","OBJECT_TYPE":"PAYLOAD","TLE_LINE2":"2 44970  53.0544 221.6114 0001590  72.0582 288.0580 15.06400500101513","EPOCH":"2021-11-05T18:28:03.336384","ECCENTRICITY":"0.00015900"},{"APOAPSIS":"548.478","TLE_LINE1":"1 44972U 20001BL  21309.87267420 -.00004002  00000-0 -24990-3 0  9995","SEMIMAJOR_AXIS":"6925.342","DECAY_DATE":null,"CENTER_NAME":"EARTH","OBJECT_NAME":"STARLINK-1107","GP_ID":"189044835","LAUNCH_DATE":"2020-01-07","TIME_SYSTEM":"UTC","OBJECT_ID":"2020-001BL","PERIAPSIS":"545.936","SITE":"AFETR","COUNTRY_CODE":"US","FILE":"3204412","RCS_SIZE":"LARGE","MEAN_ANOMALY":"271.5179","CLASSIFICATION_TYPE":"U","BSTAR":"-0.00024990000000","ELEMENT_SET_NO":"999","REF_FRAME":"TEME","MEAN_MOTION_DDOT":"0.0000000000000","MEAN_MOTION_DOT":"-0.00004002","EPHEMERIS_TYPE":"0","OBJECT_TYPE":"PAYLOAD","TLE_LINE2":"2 44972  53.0524 221.1365 0001835  88.6020 271.5179 15.06402194101543","ECCENTRICITY":"0.00018350","EPOCH":"2021-11-05T20:56:39.050880","PERIOD":"95.592","ARG_OF_PERICENTER":"88.6020","MEAN_MOTION":"15.06402194","RA_OF_ASC_NODE":"221.1365","INCLINATION":"53.0524","MEAN_ELEMENT_THEORY":"SGP4","NORAD_CAT_ID":"44972","REV_AT_EPOCH":"10154"},{"DECAY_DATE":null,"TLE_LINE1":"1 44973U 20001BM  21309.85057796  .00010359  00000-0  71268-3 0  9997","APOAPSIS":"548.254","SEMIMAJOR_AXIS":"6925.243","LAUNCH_DATE":"2020-01-07","GP_ID":"189045062","OBJECT_NAME":"STARLINK-1115","CENTER_NAME":"EARTH","SITE":"AFETR","COUNTRY_CODE":"US","PERIAPSIS":"545.962","OBJECT_ID":"2020-001BM","TIME_SYSTEM":"UTC","BSTAR":"0.00071268000000","CLASSIFICATION_TYPE":"U","RCS_SIZE":"LARGE","FILE":"3204412","MEAN_ANOMALY":"291.9655","MEAN_MOTION_DOT":"0.00010359","EPHEMERIS_TYPE":"0","MEAN_MOTION_DDOT":"0.0000000000000","REF_FRAME":"TEME","ELEMENT_SET_NO":"999","ECCENTRICITY":"0.00016550","EPOCH":"2021-11-05T20:24:49.935744","OBJECT_TYPE":"PAYLOAD","TLE_LINE2":"2 44973  53.0547 221.2429 0001655  68.1510 291.9655 15.06434335101534","RA_OF_ASC_NODE":"221.2429","MEAN_MOTION":"15.06434335","ARG_OF_PERICENTER":"68.1510","PERIOD":"95.590","REV_AT_EPOCH":"10153","NORAD_CAT_ID":"44973","INCLINATION":"53.0547","MEAN_ELEMENT_THEORY":"SGP4"},{"MEAN_MOTION":"15.06414172","RA_OF_ASC_NODE":"181.3585","ARG_OF_PERICENTER":"68.4644","PERIOD":"95.591","MEAN_ELEMENT_THEORY":"SGP4","INCLINATION":"53.0533","REV_AT_EPOCH":"9786","NORAD_CAT_ID":"45044","ELEMENT_SET_NO":"999","EPHEMERIS_TYPE":"0","MEAN_MOTION_DOT":"0.00005190","MEAN_MOTION_DDOT":"0.0000000000000","REF_FRAME":"TEME","EPOCH":"2021-11-05T19:47:39.497280","ECCENTRICITY":"0.00016030","TLE_LINE2":"2 45044  53.0533 181.3585 0001603  68.4644 291.6516 15.06414172 97862","OBJECT_TYPE":"PAYLOAD","PERIAPSIS":"546.060","TIME_SYSTEM":"UTC","OBJECT_ID":"2020-006A","SITE":"AFETR","COUNTRY_CODE":"US","MEAN_ANOMALY":"291.6516","FILE":"3204412","RCS_SIZE":"LARGE","BSTAR":"0.00036689000000","CLASSIFICATION_TYPE":"U","SEMIMAJOR_AXIS":"6925.305","TLE_LINE1":"1 45044U 20006A   21309.82476270  .00005190  00000-0  36689-3 0  9996","APOAPSIS":"548.280","DECAY_DATE":null,"OBJECT_NAME":"STARLINK-1132","CENTER_NAME":"EARTH","LAUNCH_DATE":"2020-01-29","GP_ID":"189044569"},{"RCS_SIZE":"LARGE","FILE":"3204412","MEAN_ANOMALY":"293.2249","CLASSIFICATION_TYPE":"U","BSTAR":"0.00052767000000","OBJECT_ID":"2020-006B","TIME_SYSTEM":"UTC","PERIAPSIS":"546.061","SITE":"AFETR","COUNTRY_CODE":"US","CENTER_NAME":"EARTH","OBJECT_NAME":"STARLINK-1120","GP_ID":"189043840","LAUNCH_DATE":"2020-01-29","TLE_LINE1":"1 45045U 20006B   21309.81185522  .00007589  00000-0  52767-3 0  9992","APOAPSIS":"548.308","SEMIMAJOR_AXIS":"6925.320","DECAY_DATE":null,"INCLINATION":"53.0526","MEAN_ELEMENT_THEORY":"SGP4","NORAD_CAT_ID":"45045","REV_AT_EPOCH":"9758","PERIOD":"95.592","ARG_OF_PERICENTER":"66.8910","RA_OF_ASC_NODE":"201.4135","MEAN_MOTION":"15.06409416","TLE_LINE2":"2 45045  53.0526 201.4135 0001622  66.8910 293.2249 15.06409416 97584","OBJECT_TYPE":"PAYLOAD","ECCENTRICITY":"0.00016220","EPOCH":"2021-11-05T19:29:04.291008","ELEMENT_SET_NO":"999","MEAN_MOTION_DDOT":"0.0000000000000","REF_FRAME":"TEME","EPHEMERIS_TYPE":"0","MEAN_MOTION_DOT":"0.00007589"},{"SEMIMAJOR_AXIS":"6919.115","TLE_LINE1":"1 45046U 20006C   21309.84347609  .00009375  00000-0  61297-3 0  9995","APOAPSIS":"542.340","DECAY_DATE":null,"OBJECT_NAME":"STARLINK-1129","CENTER_NAME":"EARTH","LAUNCH_DATE":"2020-01-29","GP_ID":"189044082","PERIAPSIS":"539.620","TIME_SYSTEM":"UTC","OBJECT_ID":"2020-006C","SITE":"AFETR","COUNTRY_CODE":"US","MEAN_ANOMALY":"270.9772","FILE":"3204412","RCS_SIZE":"LARGE","BSTAR":"0.00061297000000","CLASSIFICATION_TYPE":"U","ELEMENT_SET_NO":"999","EPHEMERIS_TYPE":"0","MEAN_MOTION_DOT":"0.00009375","REF_FRAME":"TEME","MEAN_MOTION_DDOT":"0.0000000000000","EPOCH":"2021-11-05T20:14:36.334176","ECCENTRICITY":"0.00019650","OBJECT_TYPE":"PAYLOAD","TLE_LINE2":"2 45046  52.9976 197.6055 0001965  89.1442 270.9772 15.08436202 97619","MEAN_MOTION":"15.08436202","RA_OF_ASC_NODE":"197.6055","PERIOD":"95.463","ARG_OF_PERICENTER":"89.1442","MEAN_ELEMENT_THEORY":"SGP4","INCLINATION":"52.9976","REV_AT_EPOCH":"9761","NORAD_CAT_ID":"45046"},{"CENTER_NAME":"EARTH","OBJECT_NAME":"STARLINK-1131","GP_ID":"189010754","LAUNCH_DATE":"2020-01-29","SEMIMAJOR_AXIS":"6925.405","TLE_LINE1":"1 45047U 20006D   21309.41747778  .00000683  00000-0  64777-4 0  9990","APOAPSIS":"548.610","DECAY_DATE":null,"MEAN_ANOMALY":"282.5728","RCS_SIZE":"LARGE","FILE":"3203969","CLASSIFICATION_TYPE":"U","BSTAR":"0.00006477700000","TIME_SYSTEM":"UTC","OBJECT_ID":"2020-006D","PERIAPSIS":"545.929","COUNTRY_CODE":"US","SITE":"AFETR","TLE_LINE2":"2 45047  53.0539 203.1916 0001936  77.5477 282.5728 15.06381736 97522","OBJECT_TYPE":"PAYLOAD","EPOCH":"2021-11-05T10:01:10.080192","ECCENTRICITY":"0.00019360","ELEMENT_SET_NO":"999","REF_FRAME":"TEME","MEAN_MOTION_DDOT":"0.0000000000000","MEAN_MOTION_DOT":"0.00000683","EPHEMERIS_TYPE":"0","MEAN_ELEMENT_THEORY":"SGP4","INCLINATION":"53.0539","NORAD_CAT_ID":"45047","REV_AT_EPOCH":"9752","ARG_OF_PERICENTER":"77.5477","PERIOD":"95.593","RA_OF_ASC_NODE":"203.1916","MEAN_MOTION":"15.06381736"},{"RA_OF_ASC_NODE":"203.1519","MEAN_MOTION":"15.06417269","ARG_OF_PERICENTER":"62.0894","PERIOD":"95.591","INCLINATION":"53.0534","MEAN_ELEMENT_THEORY":"SGP4","REV_AT_EPOCH":"9752","NORAD_CAT_ID":"45048","ELEMENT_SET_NO":"999","MEAN_MOTION_DOT":"0.00004346","EPHEMERIS_TYPE":"0","REF_FRAME":"TEME","MEAN_MOTION_DDOT":"0.0000000000000","ECCENTRICITY":"0.00016540","EPOCH":"2021-11-05T10:11:45.185856","TLE_LINE2":"2 45048  53.0534 203.1519 0001654  62.0894 298.0263 15.06417269 97523","OBJECT_TYPE":"PAYLOAD","PERIAPSIS":"546.015","OBJECT_ID":"2020-006E","TIME_SYSTEM":"UTC","COUNTRY_CODE":"US","SITE":"AFETR","RCS_SIZE":"LARGE","FILE":"3203969","MEAN_ANOMALY":"298.0263","BSTAR":"0.00031033000000","CLASSIFICATION_TYPE":"U","TLE_LINE1":"1 45048U 20006E   21309.42482854  .00004346  00000-0  31033-3 0  9991","APOAPSIS":"548.306","SEMIMAJOR_AXIS":"6925.296","DECAY_DATE":null,"OBJECT_NAME":"STARLINK-1134","CENTER_NAME":"EARTH","LAUNCH_DATE":"2020-01-29","GP_ID":"189011506"},{"SEMIMAJOR_AXIS":"6925.256","TLE_LINE1":"1 45049U 20006F   21309.69389148  .00003802  00000-0  27376-3 0  9994","APOAPSIS":"548.347","DECAY_DATE":null,"OBJECT_NAME":"STARLINK-1135","CENTER_NAME":"EARTH","LAUNCH_DATE":"2020-01-29","GP_ID":"189043341","PERIAPSIS":"545.895","OBJECT_ID":"2020-006F","TIME_SYSTEM":"UTC","SITE":"AFETR","COUNTRY_CODE":"US","MEAN_ANOMALY":"284.8217","RCS_SIZE":"LARGE","FILE":"3204412","BSTAR":"0.00027376000000","CLASSIFICATION_TYPE":"U","ELEMENT_SET_NO":"999","MEAN_MOTION_DOT":"0.00003802","EPHEMERIS_TYPE":"0","REF_FRAME":"TEME","MEAN_MOTION_DDOT":"0.0000000000000","EPOCH":"2021-11-05T16:39:12.223872","ECCENTRICITY":"0.00017700","TLE_LINE2":"2 45049  53.0530 201.9485 0001770  75.2968 284.8217 15.06430189 97567","OBJECT_TYPE":"PAYLOAD","RA_OF_ASC_NODE":"201.9485","MEAN_MOTION":"15.06430189","PERIOD":"95.590","ARG_OF_PERICENTER":"75.2968","MEAN_ELEMENT_THEORY":"SGP4","INCLINATION":"53.0530","REV_AT_EPOCH":"9756","NORAD_CAT_ID":"45049"}];
